ORBCOMM FM37            
1 33064U 08031E   24309.80639900  .00006936  00000+0  97733-3 0  9996
2 33064  48.4403 329.1018 0005023 130.8111  39.3590 14.78051053880830
ORBCOMM FM40            
1 33065U 08031F   24310.42997705  .00010141  00000+0  13573-2 0  9999
2 33065  48.4419 313.5612 0006291 143.1722   9.3377 14.79818432881438
VESSELSAT 1             
1 37840U 11058C   24309.82946413  .00000782  00000+0  28224-3 0  9999
2 37840  19.9636  11.3825 0013465 238.7061 121.2025 14.11253889674804
ORBCOMM FM109           
1 40086U 14040A   24310.48883648  .00003663  00000+0  83458-3 0  9994
2 40086  47.0038 352.2301 0002398 339.1737  20.9051 14.57504560548543
ORBCOMM FM107           
1 40087U 14040B   24310.11396148  .00003622  00000+0  82686-3 0  9996
2 40087  47.0057 355.0163 0002101 311.1046  48.9658 14.57432804548484
ORBCOMM FM106           
1 40088U 14040C   24309.97921132  .00005487  00000+0  97258-3 0  9998
2 40088  47.0586 195.4067 0017165 107.0647 253.2125 14.68203224550720
ORBCOMM FM111           
1 40089U 14040D   24310.41414385  .00010168  00000+0  12258-2 0  9995
2 40089  47.0028  72.7135 0032476 205.4693 154.4603 14.83787640556962
ORBCOMM FM104           
1 40090U 14040E   24310.47878729  .00003543  00000+0  83548-3 0  9999
2 40090  47.0057  24.2666 0017808 263.6560  96.2296 14.55891071548110
